EYESAT A (AO-27)        
1 22825U 93061C   26156.04287830  .00000133  00000+0  67637-4 0  9999
2 22825  98.6882 223.4603 0009287 131.4595 228.7387 14.30939060705268
ITAMSAT (IO-26)         
1 22826U 93061D   26156.02591198  .00000123  00000+0  63354-4 0  9994
2 22826  98.6830 223.3597 0009998 116.6870 243.5338 14.31365437705570
RADIO ROSTO (RS15)      
1 23439U 94085A   26156.05426580 -.00000048  00000+0 -15112-3 0  9993
2 23439  64.8185 322.8388 0155575   6.1185 354.1593 11.27583599294531
JAS-2 (FO-29)           
1 24278U 96046B   26156.03787250 -.00000027  00000+0  52727-5 0  9997
2 24278  98.5250   6.5738 0350681 127.8798 235.4612 13.53273637471520
FORTE                   
1 24920U 97047A   26155.97628765  .00000200  00000+0  10374-3 0  9992
2 24920  69.9543  41.6026 0024437 292.1329  67.7199 14.27940255496942
TECHSAT 1B (GO-32)      
1 25397U 98043D   26155.98258492  .00000079  00000+0  54311-4 0  9999
2 25397  99.0064 148.4335 0000374 204.4139 155.7022 14.24426023449592
ISS (ZARYA)             
1 25544U 98067A   26155.74133726  .00008168  00000+0  15298-3 0  9992
2 25544  51.6329   1.7083 0007031 132.5880 227.5703 15.49603626569823
IMAGE                   
1 26113U 00017A   26152.26636047 -.00000099  00000+0 -18882-1 0  9998
2 26113  94.2162 315.1599 7443736 289.6105   8.6041  1.68666062161230
CLUSTER II-FM7 (SAMBA)  
1 26410U 00041A   26156.98399886  .00004453  00000+0  00000+0 0  9992
2 26410 149.8917  48.5803 9040965 265.6480   0.0292  0.44829937 20254
CLUSTER II-FM8 (TANGO)  
1 26464U 00045B   26154.93096890  .00009075  00000+0  00000+0 0  9992
2 26464 150.1347  49.2777 9042973 266.1813   3.2525  0.44411373 20255
ODIN                    
1 26702U 01007A   26156.07744653  .00138173  00000+0  10497-2 0  9996
2 26702  97.3851 196.2749 0006301 158.1180 202.0353 15.71871760387493
OMNI-M1                 
1 26857U 01026A   26155.48842234 -.00000010  00000+0  00000+0 0  9991
2 26857  44.8346 248.1915 0014461  51.8408 308.3413  3.92401566205073
PCSAT (NO-44)           
1 26931U 01043C   26156.07604568  .00000165  00000+0  92638-4 0  9998
2 26931  67.0513 275.5959 0006111 264.1376  95.9029 14.31951716288713
PROBA-1                 
1 26958U 01049B   26156.18862788  .00000963  00000+0  66004-4 0  9999
2 26958  97.9596 164.3030 0055429 161.8491 198.4731 15.07438864341815
SAUDISAT 1C (SO-50)     
1 27607U 02058C   26155.41047091  .00001212  00000+0  15984-3 0  9997
2 27607  64.5504 168.5155 0075504 264.8060  94.4426 14.83018633262563
CORIOLIS                
1 27640U 03001A   26156.00671530  .00000113  00000+0  73683-4 0  9990
2 27640  98.7126 163.0774 0012880 246.2431 113.7395 14.19941498212490
CUTE-1 (CO-55)          
1 27844U 03031E   26154.54951729  .00000336  00000+0  16425-3 0  9994
2 27844  98.6736 163.2800 0008690 219.4250 140.6297 14.24327019189732
CUBESAT XI-IV (CO-57)   
1 27848U 03031J   26156.00709544  .00000283  00000+0  14351-3 0  9994
2 27848  98.6767 164.4416 0008401 235.3371 124.7016 14.23614257189641
MOZHAETS 4 (RS22)       
1 27939U 03042A   26156.19762920  .00000858  00000+0  14049-3 0  9996
2 27939  98.3466 340.2178 0010365 312.3674 136.7442 14.73444843213784
